{
  "type": "FeatureCollection",
  "features": [
    {
      "type": "Feature",
      "properties": {
        "norad_id": 41773,
        "name": "SKYSAT-C2",
        "group": "resource",
        "lat": 72.17893540539447,
        "lon": -134.89960598914698,
        "alt_km": 447.0985859880939,
        "timestamp": "2025-12-24T11:32:59.661314+00:00",
        "meta_object_name": "SKYSAT-C2",
        "meta_object_id": "2016-058D",
        "meta_epoch": "2025-12-24T00:09:18.652032",
        "meta_mean_motion": 15.37515699,
        "meta_eccentricity": 0.0002891,
        "meta_inclination": 97.0347,
        "meta_ra_of_asc_node": 22.0558,
        "meta_arg_of_pericenter": 0.8016,
        "meta_mean_anomaly": 359.3234,
        "meta_ephemeris_type": 0,
        "meta_classification_type": "U",
        "meta_norad_cat_id": 41773,
        "meta_element_set_no": 999,
        "meta_rev_at_epoch": 51809,
        "meta_bstar": 0.00032672,
        "meta_mean_motion_dot": 0.00011953,
        "meta_mean_motion_ddot": 0,
        "tle_line1": "1 41773U 16058D   25358.00646588  .00011953  00000+0  32672-3 0  9993",
        "tle_line2": "2 41773  97.0347  22.0558 0002891   0.8016 359.3234 15.37515699518094"
      },
      "geometry": {
        "type": "Point",
        "coordinates": [
          -134.89960598914698,
          72.17893540539447
        ]
      }
    },
    {
      "type": "Feature",
      "properties": {
        "norad_id": 41774,
        "name": "SKYSAT-C3",
        "group": "resource",
        "lat": -58.163502269644525,
        "lon": -159.6114979939858,
        "alt_km": 440.1281948016531,
        "timestamp": "2025-12-24T11:32:59.661324+00:00",
        "meta_object_name": "SKYSAT-C3",
        "meta_object_id": "2016-058E",
        "meta_epoch": "2025-12-24T01:11:30.109056",
        "meta_mean_motion": 15.44788034,
        "meta_eccentricity": 0.0002109,
        "meta_inclination": 96.9281,
        "meta_ra_of_asc_node": 31.2705,
        "meta_arg_of_pericenter": 105.7361,
        "meta_mean_anomaly": 254.4121,
        "meta_ephemeris_type": 0,
        "meta_classification_type": "U",
        "meta_norad_cat_id": 41774,
        "meta_element_set_no": 999,
        "meta_rev_at_epoch": 51900,
        "meta_bstar": 0.0004054,
        "meta_mean_motion_dot": 0.00018915,
        "meta_mean_motion_ddot": 0,
        "tle_line1": "1 41774U 16058E   25358.04965404  .00018915  00000+0  40540-3 0  9997",
        "tle_line2": "2 41774  96.9281  31.2705 0002109 105.7361 254.4121 15.44788034519001"
      },
      "geometry": {
        "type": "Point",
        "coordinates": [
          -159.6114979939858,
          -58.163502269644525
        ]
      }
    },
    {
      "type": "Feature",
      "properties": {
        "norad_id": 41785,
        "name": "ALSAT 1B",
        "group": "resource",
        "lat": -79.42023285392288,
        "lon": 56.81933658611048,
        "alt_km": 668.5177463182245,
        "timestamp": "2025-12-24T11:32:59.661336+00:00",
        "meta_object_name": "ALSAT 1B",
        "meta_object_id": "2016-059C",
        "meta_epoch": "2025-12-24T05:24:02.227392",
        "meta_mean_motion": 14.72087883,
        "meta_eccentricity": 0.0010753,
        "meta_inclination": 97.7804,
        "meta_ra_of_asc_node": 9.5184,
        "meta_arg_of_pericenter": 71.3545,
        "meta_mean_anomaly": 288.883,
        "meta_ephemeris_type": 0,
        "meta_classification_type": "U",
        "meta_norad_cat_id": 41785,
        "meta_element_set_no": 999,
        "meta_rev_at_epoch": 49483,
        "meta_bstar": 0.0001153,
        "meta_mean_motion_dot": 6.79e-06,
        "meta_mean_motion_ddot": 0,
        "tle_line1": "1 41785U 16059C   25358.22502578  .00000679  00000+0  11530-3 0  9994",
        "tle_line2": "2 41785  97.7804   9.5184 0010753  71.3545 288.8830 14.72087883494833"
      },
      "geometry": {
        "type": "Point",
        "coordinates": [
          56.81933658611048,
          -79.42023285392288
        ]
      }
    },
    {
      "type": "Feature",
      "properties": {
        "norad_id": 41787,
        "name": "PATHFINDER 1",
        "group": "resource",
        "lat": 23.970771284400346,
        "lon": -175.78962047774695,
        "alt_km": 676.2453447109247,
        "timestamp": "2025-12-24T11:32:59.661346+00:00",
        "meta_object_name": "PATHFINDER 1",
        "meta_object_id": "2016-059E",
        "meta_epoch": "2025-12-23T23:23:20.655168",
        "meta_mean_motion": 14.67340059,
        "meta_eccentricity": 0.0029664,
        "meta_inclination": 97.8138,
        "meta_ra_of_asc_node": 0.2268,
        "meta_arg_of_pericenter": 46.9323,
        "meta_mean_anomaly": 313.4358,
        "meta_ephemeris_type": 0,
        "meta_classification_type": "U",
        "meta_norad_cat_id": 41787,
        "meta_element_set_no": 999,
        "meta_rev_at_epoch": 49401,
        "meta_bstar": 0.00014583,
        "meta_mean_motion_dot": 7.82e-06,
        "meta_mean_motion_ddot": 0,
        "tle_line1": "1 41787U 16059E   25357.97454462  .00000782  00000+0  14583-3 0  9991",
        "tle_line2": "2 41787  97.8138   0.2268 0029664  46.9323 313.4358 14.67340059494011"
      },
      "geometry": {
        "type": "Point",
        "coordinates": [
          -175.78962047774695,
          23.970771284400346
        ]
      }
    },
    {
      "type": "Feature",
      "properties": {
        "norad_id": 41790,
        "name": "SCATSAT 1",
        "group": "resource",
        "lat": -77.9972306029622,
        "lon": 97.64335084598295,
        "alt_km": 679.127936863797,
        "timestamp": "2025-12-24T11:32:59.661356+00:00",
        "meta_object_name": "SCATSAT 1",
        "meta_object_id": "2016-059H",
        "meta_epoch": "2025-12-24T02:10:35.582304",
        "meta_mean_motion": 14.78971751,
        "meta_eccentricity": 0.0056478,
        "meta_inclination": 98.1447,
        "meta_ra_of_asc_node": 54.902,
        "meta_arg_of_pericenter": 92.2518,
        "meta_mean_anomaly": 268.5161,
        "meta_ephemeris_type": 0,
        "meta_classification_type": "U",
        "meta_norad_cat_id": 41790,
        "meta_element_set_no": 999,
        "meta_rev_at_epoch": 7570,
        "meta_bstar": 0.00019624,
        "meta_mean_motion_dot": 1.431e-05,
        "meta_mean_motion_ddot": 0,
        "tle_line1": "1 41790U 16059H   25358.09068961  .00001431  00000+0  19624-3 0  9997",
        "tle_line2": "2 41790  98.1447  54.9020 0056478  92.2518 268.5161 14.78971751 75701"
      },
      "geometry": {
        "type": "Point",
        "coordinates": [
          97.64335084598295,
          -77.9972306029622
        ]
      }
    },
    {
      "type": "Feature",
      "properties": {
        "norad_id": 41875,
        "name": "GOKTURK 1A",
        "group": "resource",
        "lat": 40.4313091904574,
        "lon": -116.3171466017073,
        "alt_km": 680.2937145822916,
        "timestamp": "2025-12-24T11:32:59.661366+00:00",
        "meta_object_name": "GOKTURK 1A",
        "meta_object_id": "2016-073A",
        "meta_epoch": "2025-12-24T04:47:48.252192",
        "meta_mean_motion": 14.62792418,
        "meta_eccentricity": 0.0001294,
        "meta_inclination": 98.1429,
        "meta_ra_of_asc_node": 250.4123,
        "meta_arg_of_pericenter": 81.2721,
        "meta_mean_anomaly": 278.8627,
        "meta_ephemeris_type": 0,
        "meta_classification_type": "U",
        "meta_norad_cat_id": 41875,
        "meta_element_set_no": 999,
        "meta_rev_at_epoch": 48324,
        "meta_bstar": 0.00013199,
        "meta_mean_motion_dot": 6.27e-06,
        "meta_mean_motion_ddot": 0,
        "tle_line1": "1 41875U 16073A   25358.19986403  .00000627  00000+0  13199-3 0  9995",
        "tle_line2": "2 41875  98.1429 250.4123 0001294  81.2721 278.8627 14.62792418483249"
      },
      "geometry": {
        "type": "Point",
        "coordinates": [
          -116.3171466017073,
          40.4313091904574
        ]
      }
    },
    {
      "type": "Feature",
      "properties": {
        "norad_id": 41877,
        "name": "RESOURCESAT-2A",
        "group": "resource",
        "lat": 27.492991663552964,
        "lon": -107.12152901929612,
        "alt_km": 818.0156610362556,
        "timestamp": "2025-12-24T11:32:59.661377+00:00",
        "meta_object_name": "RESOURCESAT-2A",
        "meta_object_id": "2016-074A",
        "meta_epoch": "2025-12-24T04:04:48.565056",
        "meta_mean_motion": 14.21605164,
        "meta_eccentricity": 0.0001605,
        "meta_inclination": 98.7742,
        "meta_ra_of_asc_node": 67.959,
        "meta_arg_of_pericenter": 204.2096,
        "meta_mean_anomaly": 155.9005,
        "meta_ephemeris_type": 0,
        "meta_classification_type": "U",
        "meta_norad_cat_id": 41877,
        "meta_element_set_no": 999,
        "meta_rev_at_epoch": 46943,
        "meta_bstar": 0.00015796,
        "meta_mean_motion_dot": 3.02e-06,
        "meta_mean_motion_ddot": 0,
        "tle_line1": "1 41877U 16074A   25358.17000654  .00000302  00000+0  15796-3 0  9996",
        "tle_line2": "2 41877  98.7742  67.9590 0001605 204.2096 155.9005 14.21605164469438"
      },
      "geometry": {
        "type": "Point",
        "coordinates": [
          -107.12152901929612,
          27.492991663552964
        ]
      }
    }
  ]
}